[{"OBJECT_NAME":"ASTROCAST-0404","OBJECT_ID":"2023-001DH","EPOCH":"2026-03-09T19:24:02.920896","MEAN_MOTION":15.26309833,"ECCENTRICITY":0.00068478,"INCLINATION":97.5646,"RA_OF_ASC_NODE":161.5422,"ARG_OF_PERICENTER":1.1317,"MEAN_ANOMALY":358.9936,"EPHEMERIS_TYPE":0,"CLASSIFICATION_TYPE":"U","NORAD_CAT_ID":55112,"ELEMENT_SET_NO":999,"REV_AT_EPOCH":12936,"BSTAR":0.00034435555,"MEAN_MOTION_DOT":8.87e-5,"MEAN_MOTION_DDOT":0},{"OBJECT_NAME":"STARLINK-30996","OBJECT_ID":"2024-038A","EPOCH":"2026-03-09T06:29:14.747712","MEAN_MOTION":15.27572837,"ECCENTRICITY":4.989e-5,"INCLINATION":43.0041,"RA_OF_ASC_NODE":29.4218,"ARG_OF_PERICENTER":228.237,"MEAN_ANOMALY":131.8439,"EPHEMERIS_TYPE":0,"CLASSIFICATION_TYPE":"U","NORAD_CAT_ID":59023,"ELEMENT_SET_NO":999,"REV_AT_EPOCH":11606,"BSTAR":-3.3911215e-5,"MEAN_MOTION_DOT":-1.195e-5,"MEAN_MOTION_DDOT":0}]
